[Satellite]
VERSION=1.1
NAME=GPS BIIR-12 (PRN 23)
NICKNAME=GPS BIIR-12 (PRN 23)
TLE1=1 28361U 04023A   20153.85344631  .00000102  00000-0  00000+0 0  9996
TLE2=2 28361  54.0634 176.0796 0144135 235.4935 121.4794  2.00392896116802
STATUS=0
